HST                     
1 20580U 90037B   25296.55162301  .00010165  00000+0  36330-3 0  9991
2 20580  28.4685 253.8512 0002152  40.5499 319.5256 15.27098555752313
POLAR                   
1 23802U 96013A   25294.27053660  .00000097  00000+0  00000+0 0  9999
2 23802  79.5855 229.7197 6235650 217.1605  76.7498  1.29846405141750
SWAS                    
1 25560U 98071A   25296.50487157  .00003968  00000+0  26894-3 0  9991
2 25560  69.8940 116.9208 0008969 263.4565  96.5577 15.07276987461570
CXO                     
1 25867U 99040B   25299.01581392  .00000853  00000+0  00000+0 0  9990
2 25867  52.0858 124.3383 8218278 310.6210   0.1219  0.37802417 16430
XMM-NEWTON              
1 25989U 99066A   25297.00729299  .00000072  00000+0  00000+0 0  9993
2 25989  65.6666 286.0978 4766544  69.0646   0.1535  0.50134857 21827
TERRA                   
1 25994U 99068A   25296.61592058  .00000768  00000+0  16612-3 0  9990
2 25994  97.9823 350.1194 0001005 237.7609 276.1761 14.60865992375063
CLUSTER II-FM7 (SAMBA)  
1 26410U 00041A   25298.79874475  .00001345  00000+0  00000+0 0  9996
2 26410 146.7052  20.5336 8661794 236.1057   0.9934  0.44830419 19259
CLUSTER II-FM5 (RUMBA)  
1 26463U 00045A   25293.57799104  .00003729  00000+0  00000+0 0  9992
2 26463 145.9975  98.1036 9083512 317.9304   1.7530  0.45057109 19103
CLUSTER II-FM8 (TANGO)  
1 26464U 00045B   25297.00063725  .00001297  00000+0  00000+0 0  9996
2 26464 146.9613  20.9330 8666193 236.3430   0.9547  0.44420024 19253
ODIN                    
1 26702U 01007A   25296.32931716  .00034881  00000+0  68112-3 0  9995
2 26702  97.4309 322.7911 0002316 342.1643  17.9525 15.47401909352527
TIMED                   
1 26998U 01055B   25296.57452022  .00002049  00000+0  19358-3 0  9999
2 26998  74.0707 351.1636 0002407 265.8758  94.2151 14.94441021295468
CORIOLIS                
1 27640U 03001A   25296.49811102  .00000232  00000+0  13001-3 0  9997
2 27640  98.7158 302.0119 0014159 170.3824 189.7626 14.19844789180632
SORCE                   
1 27651U 03004A   25296.63744741  .00005394  00000+0  41774-3 0  9994
2 27651  39.9904 169.4907 0015803 153.7463 206.4135 15.01690599236309
MOST                    
1 27843U 03031D   25296.46183332  .00000153  00000+0  90106-4 0  9993
2 27843  98.7084 302.4920 0009259 210.5679 149.4960 14.21249492157089
SCISAT 1                
1 27858U 03036A   25296.63844301  .00001327  00000+0  17597-3 0  9999
2 27858  73.9285 281.1923 0006599  28.1105 332.0426 14.80976465196420
SWIFT                   
1 28485U 04047A   25296.34691222  .00045895  00000+0  89447-3 0  9990
2 28485  20.5535 181.5813 0005497 306.2227  53.7706 15.45757129149898
HINODE (SOLAR-B)        
1 29479U 06041A   25296.46330320  .00001169  00000+0  21126-3 0  9998
2 29479  98.0689 311.0225 0016711 322.7888  37.2157 14.68176440 20133
SHIJIAN-6 02A (SJ-6 02A)
1 29505U 06046A   25296.62053073  .00008157  00000+0  46181-3 0  9990
2 29505  97.6691 331.0565 0002143 207.2520 152.8598 15.13297944 36442
SHIJIAN-6 02B (SJ-6 02B)
1 29506U 06046B   25296.60347961  .00001882  00000+0  15476-3 0  9992
2 29506  97.6909 322.7686 0013471 126.1308 234.1164 15.00286893 35253
FGRST (GLAST)           
1 33053U 08029A   25296.59358842  .00005143  00000+0  20404-3 0  9996
2 33053  25.5834  45.2070 0009004  60.5535 299.5901 15.22093377959724
SDO                     
1 36395U 10005A   25295.45795671 -.00000047  00000+0  00000+0 0  9999
2 36395  34.1510  89.9687 0001455 127.0992 237.3548  1.00273190 57685
CRYOSAT 2               
1 36508U 10013A   25296.61703288  .00000334  00000+0  82251-4 0  9997
2 36508  92.0245 220.0380 0002590  83.0869 277.0633 14.51907169823757
X-SAT                   
1 37389U 11015C   25296.62544051  .00000250  00000+0  12388-3 0  9990
2 37389  98.3265 280.3038 0013324 321.9131  38.1107 14.25098636753988
GCOM-W1 (SHIZUKU)       
1 38337U 12025A   25296.62454128  .00001109  00000+0  25632-3 0  9991
2 38337  98.2131 235.5058 0001711  87.7214  84.9356 14.57082586714583
NUSTAR                  
1 38358U 12031A   25296.66671296  .00021914  00000+0  14176-2 0  9998
2 38358   6.0284   4.2721 0009290 201.5173 276.0215 15.05512860  1304
NEOSSAT                 
1 39089U 13009D   25296.47502316  .00000360  00000+0  13943-3 0  9995
2 39089  98.4095 117.2456 0010113 228.5520 131.4798 14.35689794662779
BRITE-AUSTRIA           
1 39091U 13009F   25296.45104444  .00000383  00000+0  14525-3 0  9998
2 39091  98.3908 116.8657 0009377 222.6100 137.4359 14.36391773663061
IRIS                    
1 39197U 13033A   25296.47148525  .00002128  00000+0  25464-3 0  9995
2 39197  97.9437 131.4027 0025261  16.0279 344.1729 14.85005288665232
HISAKI (SPRINT-A)       
1 39253U 13049A   25296.49238350  .00000190  00000+0  16623-3 0  9997
2 39253  29.7221 343.3532 0136628 258.0154 100.5074 13.55510420599287
CASSIOPE                
1 39265U 13055A   25296.57010319  .00042724 -55725-6  60347-3 0  9992
2 39265  80.9420 350.2529 0358666 130.2331 233.0864 15.06757071631806
STSAT-3                 
1 39422U 13066G   25296.59736778  .00004680  00000+0  37230-3 0  9997
2 39422  97.5835 266.1051 0015626 108.2362 252.0565 15.00794588648697
SWARM B                 
1 39451U 13067A   25296.58768341  .00006105  00000+0  23335-3 0  9995
2 39451  87.7451  54.0402 0002205 100.3288 259.8209 15.26416427647125
SWARM A                 
1 39452U 13067B   25296.58094102  .00011863  00000+0  25060-3 0  9997
2 39452  87.3371 143.7144 0002857  84.9988 275.1596 15.45036017669644
SWARM C                 
1 39453U 13067C   25296.58088075  .00011997  00000+0  25342-3 0  9991
2 39453  87.3367 142.3017 0002849  84.7397 275.4186 15.45036219669605
BRITE-CA1 (TORONTO)     
1 40020U 14033L   25296.61293833  .00001627  00000+0  25518-3 0  9995
2 40020  97.9452  65.4704 0078619 314.9514  44.5334 14.71988533607407
OCO 2                   
1 40059U 14035A   25296.58824274  .00000944  00000+0  21973-3 0  9996
2 40059  98.2131 236.2153 0001832  78.4621 281.6783 14.57063680601594
BRITE-PL2 (HEWELIUSZ)   
1 40119U 14049B   25296.55134460  .00003328  00000+0  32285-3 0  9993
2 40119  97.8982  42.1847 0014622 170.1344 190.0165 14.93284000606118
MMS 1                   
1 40482U 15011A   25296.66671296 -.00000708  00000+0  00000+0 0  9997
2 40482  68.1726 352.4566 8564315 162.3287 293.4228  0.28405725  1365
MMS 2                   
1 40483U 15011B   25296.66671296 -.00000708  00000+0  00000+0 0  9998
2 40483  68.1773 352.4537 8566940 162.3254 293.4406  0.28405682  1366
MMS 3                   
1 40484U 15011C   25296.66671296 -.00000708  00000+0  00000+0 0  9999
2 40484  68.1804 352.4640 8565815 162.3351 293.4167  0.28405856  1362
MMS 4                   
1 40485U 15011D   25296.66671296 -.00000708  00000+0  00000+0 0  9990
2 40485  68.1686 352.4508 8566001 162.3462 293.3677  0.28409787  1367
ASTROSAT                
1 40930U 15052A   25295.09743058  .00002890  00000+0  27446-3 0  9992
2 40930   5.9969  68.3284 0008567 238.4096 121.5196 14.81809873544440
DAMPE                   
1 41173U 15078A   25296.60772787  .00002162  00000+0  77201-4 0  9996
2 41173  97.4546 296.0972 0011854 187.1221 172.9853 15.29920755548365
PISAT                   
1 41784U 16059B   25296.46413454  .00001856  00000+0  32795-3 0  9998
2 41784  97.8175 302.2562 0028004 240.3843 119.4573 14.68310413484996
HXMT (HUIYAN)           
1 42758U 17034A   25296.64654684  .00007421  00000+0  39298-3 0  9995
2 42758  43.0150  57.4386 0031786  89.0876 271.3613 15.15417127461735
FLYING LAPTOP           
1 42831U 17042G   25296.62625356  .00003050  00000+0  25299-3 0  9998
2 42831  97.4207  97.5881 0010516 210.3136 149.7481 14.99466937450984
ZHANGHENG 1-01 (CSES-1) 
1 43194U 18015C   25296.60462205  .00013079  00000+0  59425-3 0  9992
2 43194  97.6641  92.9119 0016797  28.1991 332.0150 15.20774072428684
SALSAT                  
1 46495U 20068K   25296.42436959  .00012448  00000+0  49940-3 0  9997
2 46495  97.8754 281.0397 0012708  57.1412 303.1046 15.25075420279217
IXPE                    
1 49954U 21121A   25296.66671296  .00024247  00000+0  15031-2 0  9995
2 49954   0.2321 302.6420 0007336 109.8166 323.5324 15.07130038  5485
